STARLINK-32326          
1 61674U 24193P   24324.48219107  .00000902  00000+0  23749-4 0  9999
2 61674  53.1603 143.0307 0001081  87.8441 272.2692 15.50000725  3709
STARLINK-32294          
1 61675U 24193Q   24324.48184603  .00001451  00000+0  33386-4 0  9990
2 61675  53.1615 143.0293 0001076  91.3294 268.7838 15.50004486  3707
STARLINK-32309          
1 61676U 24193R   24324.48116115  .00000574  00000+0  17996-4 0  9998
2 61676  53.1597 143.0251 0001038  99.6554 260.4573 15.50000253  3702
STARLINK-32323          
1 61677U 24193S   24324.93286132  .00000442  00000+0  15681-4 0  9999
2 61677  53.1629 140.8676 0000861  72.8242 287.2862 15.50000684  3778
STARLINK-32363          
1 61678U 24193T   24323.96498217  .00001979  00000+0  42651-4 0  9994
2 61678  53.1600 145.4918 0001217  65.3192 294.7944 15.50000959  3628
STARLINK-32395          
1 61679U 24193U   24324.93182973 -.00000478  00000+0 -45890-6 0  9997
2 61679  53.1600 140.8576 0001110  85.9157 274.1980 15.50005042  3775
STARLINK-32412          
1 61680U 24193V   24324.86666355  .00001539  00000+0  34931-4 0  9991
2 61680  53.1617 141.1616 0000976 100.6771 259.4348 15.50003902  3766
STARLINK-32426          
1 61681U 24193W   24323.96429784  .00001895  00000+0  41178-4 0  9991
2 61681  53.1615 145.4864 0001373  90.8068 269.3099 15.49999947  3627
STARLINK-32429          
1 61682U 24193X   24323.96360927  .00001934  00000+0  41856-4 0  9992
2 61682  53.1605 145.4795 0000829  98.5468 261.5635 15.49999053  3622
STARLINK-11335 [DTC]    
1 61687U 24195A   24324.90339949 -.00002330  00000+0 -10244-4 0  9994
2 61687  53.1570 208.2262 0000841 101.2141 258.8975 15.76727688  4449
STARLINK-11344 [DTC]    
1 61688U 24195B   24324.89851572 -.00001342  00000+0 -42083-5 0  9993
2 61688  53.1569 208.1953 0000897  99.6233 260.4889 15.76729447  4445
STARLINK-11312 [DTC]    
1 61689U 24195C   24324.91667824 -.00070709  00000+0 -43121-3 0  9997
2 61689  53.1558 208.0476 0001006  94.6470  36.3330 15.76750059  4460
STARLINK-11340 [DTC]    
1 61690U 24195D   24324.91667824 -.00063874  00000+0 -38884-3 0  9994
2 61690  53.1570 207.9909 0000562  92.1077  66.6105 15.76750547  4465
STARLINK-11339 [DTC]    
1 61691U 24195E   24324.91667824 -.00056859  00000+0 -34565-3 0  9992
2 61691  53.1598 207.8779 0000867  56.5727 157.6174 15.76734359  4464
STARLINK-11315 [DTC]    
1 61692U 24195F   24324.91667824 -.00022101  00000+0 -13144-3 0  9996
2 61692  53.1582 207.9342 0001168  78.6591 107.8082 15.76719180  4464
STARLINK-11366 [DTC]    
1 61693U 24195G   24324.91667824 -.00971194  00000+0 -61059-2 0  9999
2 61693  53.1619 207.8281 0000790  71.1530 167.7576 15.78609088  4468
STARLINK-11348 [DTC]    
1 61694U 24195H   24324.91667824 -.00957542  00000+0 -55271-2 0  9990
2 61694  53.1618 207.7893 0000654  78.5797 179.1704 15.80432998  4468
STARLINK-11327 [DTC]    
1 61695U 24195J   24324.93273330 -.00333602  00000+0 -15977-2 0  9992
2 61695  53.1625 207.6859 0001117  67.6252 292.4890 15.82851698  4456
STARLINK-11341 [DTC]    
1 61696U 24195K   24324.17411066  .00220123  00000+0  94788-3 0  9998
2 61696  53.1622 211.4870 0000950  95.8274 264.2859 15.83877621  4335
STARLINK-11346 [DTC]    
1 61697U 24195L   24324.86741392  .00109083  00000+0  47771-3 0  9994
2 61697  53.1628 207.9894 0001983  52.6564 307.4640 15.83862121  4447
STARLINK-11336 [DTC]    
1 61698U 24195M   24324.86679983  .00017816  00000+0  81691-4 0  9993
2 61698  53.1626 207.9830 0001333  45.8555 314.2579 15.83824702  4449
STARLINK-11296 [DTC]    
1 61699U 24195N   24324.86608316  .00146685  00000+0  63572-3 0  9990
2 61699  53.1623 207.9777 0001132 136.6757 223.4356 15.83955539  4444
STARLINK-32349          
1 61700U 24195P   24324.91667824 -.01485316  00000+0 -19081-1 0  9992
2 61700  53.1592 208.4970 0000881  79.0012 185.9437 15.61463302  4313
STARLINK-32461          
1 61701U 24195Q   24324.91667824 -.01487014  00000+0 -19105-1 0  9997
2 61701  53.1591 208.4930 0000911  81.2824 185.5780 15.61463554  4315
STARLINK-32299          
1 61702U 24195R   24324.91667824 -.01485322  00000+0 -19081-1 0  9991
2 61702  53.1592 208.4890 0000894  78.5336 190.2444 15.61463293  4476
STARLINK-32335          
1 61703U 24195S   24324.91667824 -.01484997  00000+0 -19077-1 0  9994
2 61703  53.1591 208.4849 0000814  84.3673 186.3272 15.61463095  4476
STARLINK-32387          
1 61704U 24195T   24324.91667824 -.01484419  00000+0 -19068-1 0  9994
2 61704  53.1591 208.4774 0000915  77.5045 197.0230 15.61463161  4313
STARLINK-32515          
1 61705U 24195U   24324.91667824 -.01485804  00000+0 -19088-1 0  9996
2 61705  53.1591 208.4732 0000838  79.2772 197.1666 15.61463679  4316
STARLINK-32533          
1 61706U 24195V   24324.91667824 -.01485603  00000+0 -19085-1 0  9991
2 61706  53.1592 208.4811 0000870  78.1707 194.4401 15.61463551  4268
STARLINK-32376          
1 61707U 24196A   24324.91667824 -.01373306  00000+0 -12034-1 0  9996
2 61707  53.1545 152.6365 0000983  84.4850 222.9694 15.71114863  4424
STARLINK-32402          
1 61708U 24196B   24324.91667824 -.01375145  00000+0 -12053-1 0  9991
2 61708  53.1538 152.6310 0000716  68.3867 240.9836 15.71115778  4424
STARLINK-32314          
1 61709U 24196C   24324.91667824 -.01373442  00000+0 -12036-1 0  9991
2 61709  53.1572 152.6237 0000790  76.4323 236.7712 15.71115512  4208
STARLINK-32404          
1 61710U 24196D   24324.91667824 -.01375454  00000+0 -12056-1 0  9990
2 61710  53.1539 152.6277 0000708  69.3200 241.9668 15.71115957  4426
STARLINK-32312          
1 61711U 24196E   24324.91667824 -.01373781  00000+0 -12039-1 0  9993
2 61711  53.1570 152.6160 0000864  81.5510 235.4856 15.71115482  4426
STARLINK-32343          
1 61712U 24196F   24324.75002315 -.01412592  00000+0 -12146-1 0  9997
2 61712  53.1567 153.4427 0000960  92.1620 359.6483 15.71645292  4179
STARLINK-32467          
1 61713U 24196G   24324.91667824 -.01375356  00000+0 -12055-1 0  9993
2 61713  53.1564 152.6109 0000704  65.5440 253.4086 15.71116118  4209
STARLINK-32440          
1 61714U 24196H   24324.91667824 -.01376408  00000+0 -12065-1 0  9994
2 61714  53.1590 152.6000 0000683  71.8815 252.8204 15.71117131  4112
STARLINK-32459          
1 61715U 24196J   24324.91667824 -.01376080  00000+0 -12062-1 0  9998
2 61715  53.1568 152.6073 0000843  63.5676 257.3004 15.71115088  4329
STARLINK-32465          
1 61716U 24196K   24324.91667824 -.01376220  00000+0 -12063-1 0  9996
2 61716  53.1569 152.6037 0000752  68.9668 253.8188 15.71116710  4327
STARLINK-32457          
1 61717U 24196L   24324.91667824 -.01374172  00000+0 -12043-1 0  9999
2 61717  53.1589 152.5926 0000775  79.1089 249.4263 15.71116110  4422
STARLINK-32591          
1 61718U 24196M   24324.91667824 -.01374294  00000+0 -12043-1 0  9995
2 61718  53.1588 152.5970 0001051  91.6188 234.9994 15.71115779  4428
STARLINK-32344          
1 61719U 24196N   24324.91667824 -.01377487  00000+0 -12074-1 0  9997
2 61719  53.1592 152.5886 0000954  69.9653 260.4859 15.71117769  4421
STARLINK-32322          
1 61720U 24196P   24324.91667824 -.01375371  00000+0 -12055-1 0  9998
2 61720  53.1591 152.5797 0000710  64.3309 269.9537 15.71116406  4424
STARLINK-32469          
1 61721U 24196Q   24324.91667824 -.01374339  00000+0 -12044-1 0  9990
2 61721  53.1591 152.5843 0000911  84.1612 248.2070 15.71116075  4173
STARLINK-32438          
1 61722U 24196R   24324.91667824 -.01377963  00000+0 -12079-1 0  9995
2 61722  53.1591 152.5757 0000865  72.4949 263.7057 15.71118062  4422
STARLINK-32540          
1 61723U 24196S   24324.92696842 -.00293709  00000+0 -13184-2 0  9992
2 61723  53.1484 151.8494 0000990 172.1064 187.9976 15.84113142  4266
STARLINK-32528          
1 61724U 24196T   24324.91667824 -.01377420  00000+0 -12075-1 0  9991
2 61724  53.1593 152.5718 0000745  68.3423 269.7736 15.71116544  4110
STARLINK-32573          
1 61725U 24196U   24324.91667824 -.01376448  00000+0 -12065-1 0  9990
2 61725  53.1592 152.5635 0000829  85.0689 256.8807 15.71116532  4428
STARLINK-32478          
1 61726U 24196V   24324.91667824 -.01377634  00000+0 -12076-1 0  9991
2 61726  53.1587 152.5588 0000840  72.8985 270.9682 15.71117800  4276
STARLINK-32511          
1 61727U 24196W   24324.91667824 -.01375356  00000+0 -12055-1 0  9998
2 61727  53.1594 152.5513 0000759  63.1242 284.5737 15.71115661  4423
STARLINK-32475          
1 61728U 24196X   24324.91667824 -.01374174  00000+0 -12043-1 0  9993
2 61728  53.1594 152.5469 0000779  72.5238 277.0927 15.71116111  4277
STARLINK-32442          
1 61729U 24196Y   24324.91667824 -.01374960  00000+0 -12050-1 0  9995
2 61729  53.1593 152.5566 0000902  81.4298 264.3540 15.71116424  4275
STARLINK-32362          
1 61845U 24202A   24324.91667824 -.01306764  00000+0 -81174-2 0  9993
2 61845  43.0046  54.7119 0001493 280.6315 280.5219 15.78559911  3137
STARLINK-32472          
1 61846U 24202B   24324.91667824 -.01314043  00000+0 -81599-2 0  9994
2 61846  43.0044  54.7070 0001500 280.6794 282.3255 15.78581174  3138
STARLINK-32352          
1 61847U 24202C   24324.91667824 -.01323237  00000+0 -82250-2 0  9995
2 61847  43.0044  54.7019 0001526 279.8509 285.1447 15.78577323  3139
STARLINK-32427          
1 61848U 24202D   24324.91667824 -.01334617  00000+0 -83238-2 0  9997
2 61848  43.0044  54.6963 0001508 278.0713 289.1713 15.78525544  3133
STARLINK-32346          
1 61849U 24202E   24324.91667824 -.01343516  00000+0 -83807-2 0  9998
2 61849  43.0043  54.6863 0001575 278.5023 292.5845 15.78538453  3031
STARLINK-32330          
1 61850U 24202F   24324.91667824 -.01352728  00000+0 -84617-2 0  9995
2 61850  43.0041  54.6810 0001523 278.8470 294.4289 15.78495853  3135
STARLINK-32379          
1 61851U 24202G   24324.91667824 -.01336026  00000+0 -83214-2 0  9991
2 61851  43.0041  54.6916 0001480 280.0803 288.9392 15.78558002  3049
